[{"OBJECT_NAME":"YAOGAN-30 09C","OBJECT_ID":"2021-039C","EPOCH":"2026-03-09T23:18:27.367776","MEAN_MOTION":15.02221245,"ECCENTRICITY":0.00033191,"INCLINATION":34.9945,"RA_OF_ASC_NODE":275.1705,"ARG_OF_PERICENTER":299.331,"MEAN_ANOMALY":60.7067,"EPHEMERIS_TYPE":0,"CLASSIFICATION_TYPE":"U","NORAD_CAT_ID":48425,"ELEMENT_SET_NO":999,"REV_AT_EPOCH":26462,"BSTAR":0.00027769734,"MEAN_MOTION_DOT":3.708e-5,"MEAN_MOTION_DDOT":0},{"OBJECT_NAME":"STARLINK-5568","OBJECT_ID":"2023-013AT","EPOCH":"2026-03-09T23:25:27.304608","MEAN_MOTION":15.02536934,"ECCENTRICITY":0.00012973,"INCLINATION":43.0038,"RA_OF_ASC_NODE":311.668,"ARG_OF_PERICENTER":269.3719,"MEAN_ANOMALY":90.6975,"EPHEMERIS_TYPE":0,"CLASSIFICATION_TYPE":"U","NORAD_CAT_ID":55372,"ELEMENT_SET_NO":999,"REV_AT_EPOCH":17160,"BSTAR":3.8734465e-5,"MEAN_MOTION_DOT":3.2e-6,"MEAN_MOTION_DDOT":0}]
